[{"OBJECT_NAME":"STARLINK-1478","OBJECT_ID":"2020-038AB","EPOCH":"2026-03-09T15:11:59.368128","MEAN_MOTION":15.55038308,"ECCENTRICITY":0.0003392,"INCLINATION":53.0519,"RA_OF_ASC_NODE":198.1629,"ARG_OF_PERICENTER":240.0104,"MEAN_ANOMALY":120.057,"EPHEMERIS_TYPE":0,"CLASSIFICATION_TYPE":"U","NORAD_CAT_ID":45755,"ELEMENT_SET_NO":999,"REV_AT_EPOCH":31672,"BSTAR":0.0016531,"MEAN_MOTION_DOT":0.00114162,"MEAN_MOTION_DDOT":0},{"OBJECT_NAME":"STARLINK-1597","OBJECT_ID":"2020-057AB","EPOCH":"2026-03-10T00:00:02.999808","MEAN_MOTION":15.56277129,"ECCENTRICITY":0.0007232,"INCLINATION":53.0492,"RA_OF_ASC_NODE":295.3481,"ARG_OF_PERICENTER":151.3253,"MEAN_ANOMALY":20.2244,"EPHEMERIS_TYPE":0,"CLASSIFICATION_TYPE":"U","NORAD_CAT_ID":46142,"ELEMENT_SET_NO":999,"REV_AT_EPOCH":592,"BSTAR":0.0020720238,"MEAN_MOTION_DOT":0.00150729,"MEAN_MOTION_DDOT":0}]
